SL-3 R/B                
1 13154U 82039B   25300.89605808  .00003221  00000+0  19894-3 0  9991
2 13154  81.1843   8.7930 0032870  40.3262 320.0392 15.09163529361601
SL-3 R/B                
1 13403U 82079B   25300.89449213  .00006910  00000+0  29139-3 0  9999
2 13403  81.1484 349.6775 0024557 253.5095 106.3439 15.22888091357478
SL-14 R/B               
1 13553U 82092B   25300.97490222  .00000950  00000+0  10433-3 0  9990
2 13553  82.5658 265.5116 0021171  25.8317  34.9510 14.86474311309213
SL-3 R/B                
1 13819U 83010B   25300.13359709  .00012817  00000+0  30000-3 0  9995
2 13819  81.1045 165.4336 0017967 148.0018 212.2319 15.41820167337337
SL-3 R/B                
1 14208U 83075B   25300.97386116  .00013707  00000+0  40509-3 0  9997
2 14208  97.6108 295.9669 0023000 349.2574  10.8174 15.34798749309777
COSMOS 1536             
1 14699U 84013A   25300.92010449  .00011024  00000+0  48440-3 0  9994
2 14699  82.5458 239.5699 0016715  36.0172 324.2187 15.21659364252418
SL-14 R/B               
1 14820U 84027B   25300.89653965  .00000646  00000+0  71273-4 0  9996
2 14820  82.5448   9.5427 0019274  56.2373 304.0676 14.85805660227914
SL-8 R/B                
1 15483U 85006B   25300.97449103  .00000282  00000+0  10234-3 0  9991
2 15483  74.0438 145.3334 0017409  93.1927  15.1535 14.37679991134952
SL-12 R/B(2)            
1 15772U 85042D   25300.69014622  .00000215  00000+0  11822-3 0  9995
2 15772  71.1102   8.7056 0036490 329.4002 204.4396 14.21930518 95482
SL-14 R/B               
1 15945U 85069B   25300.58473949  .00000622  00000+0  67859-4 0  9999
2 15945  82.5260 150.0953 0017340 273.9950  85.9284 14.86246107153062
SL-16 R/B               
1 16182U 85097B   25300.58834670  .00000311  00000+0  17976-3 0  9995
2 16182  71.0034  60.7609 0005291 103.0630 268.0807 14.16574156 68389
SL-14 R/B               
1 16496U 86006B   25300.66119920  .00000828  00000+0  85779-4 0  9997
2 16496  82.5301  24.8983 0076675 354.8247   5.2167 14.86579157129449
