CCSDS_OMM_VERS = 2.0
CREATION_DATE  = 
ORIGINATOR     = 

OBJECT_NAME    = SL-3 R/B
OBJECT_ID      = 1982-039B
CENTER_NAME    = EARTH
REF_FRAME      = TEME
TIME_SYSTEM    = UTC
MEAN_ELEMENT_THEORY = SGP/SGP4

EPOCH          = 2025-10-27T21:30:19.418112
MEAN_MOTION    = 15.09163529
ECCENTRICITY   = .00328702
INCLINATION    = 81.1843
RA_OF_ASC_NODE = 8.7930
ARG_OF_PERICENTER = 40.3262
MEAN_ANOMALY   = 320.0392

EPHEMERIS_TYPE = 0
CLASSIFICATION_TYPE = U
NORAD_CAT_ID   = 13154
ELEMENT_SET_NO = 999
REV_AT_EPOCH   = 36160
BSTAR          = .19893538E-3
MEAN_MOTION_DOT = .3221E-4
MEAN_MOTION_DDOT = 0

CCSDS_OMM_VERS = 2.0
CREATION_DATE  = 
ORIGINATOR     = 

OBJECT_NAME    = SL-3 R/B
OBJECT_ID      = 1982-079B
CENTER_NAME    = EARTH
REF_FRAME      = TEME
TIME_SYSTEM    = UTC
MEAN_ELEMENT_THEORY = SGP/SGP4

EPOCH          = 2025-10-27T21:28:04.120032
MEAN_MOTION    = 15.22888091
ECCENTRICITY   = .0024557
INCLINATION    = 81.1484
RA_OF_ASC_NODE = 349.6775
ARG_OF_PERICENTER = 253.5095
MEAN_ANOMALY   = 106.3439

EPHEMERIS_TYPE = 0
CLASSIFICATION_TYPE = U
NORAD_CAT_ID   = 13403
ELEMENT_SET_NO = 999
REV_AT_EPOCH   = 35747
BSTAR          = .29139379E-3
MEAN_MOTION_DOT = .691E-4
MEAN_MOTION_DDOT = 0

CCSDS_OMM_VERS = 2.0
CREATION_DATE  = 
ORIGINATOR     = 

OBJECT_NAME    = SL-14 R/B
OBJECT_ID      = 1982-092B
CENTER_NAME    = EARTH
REF_FRAME      = TEME
TIME_SYSTEM    = UTC
MEAN_ELEMENT_THEORY = SGP/SGP4

EPOCH          = 2025-10-27T23:23:51.551808
MEAN_MOTION    = 14.86474311
ECCENTRICITY   = .00211713
INCLINATION    = 82.5658
RA_OF_ASC_NODE = 265.5116
ARG_OF_PERICENTER = 25.8317
MEAN_ANOMALY   = 34.9510

EPHEMERIS_TYPE = 0
CLASSIFICATION_TYPE = U
NORAD_CAT_ID   = 13553
ELEMENT_SET_NO = 999
REV_AT_EPOCH   = 30921
BSTAR          = .10432621E-3
MEAN_MOTION_DOT = .95E-5
MEAN_MOTION_DDOT = 0

CCSDS_OMM_VERS = 2.0
CREATION_DATE  = 
ORIGINATOR     = 

OBJECT_NAME    = SL-3 R/B
OBJECT_ID      = 1983-010B
CENTER_NAME    = EARTH
REF_FRAME      = TEME
TIME_SYSTEM    = UTC
MEAN_ELEMENT_THEORY = SGP/SGP4

EPOCH          = 2025-10-27T03:12:22.788576
MEAN_MOTION    = 15.41820167
ECCENTRICITY   = .00179675
INCLINATION    = 81.1045
RA_OF_ASC_NODE = 165.4336
ARG_OF_PERICENTER = 148.0018
MEAN_ANOMALY   = 212.2319

EPHEMERIS_TYPE = 0
CLASSIFICATION_TYPE = U
NORAD_CAT_ID   = 13819
ELEMENT_SET_NO = 999
REV_AT_EPOCH   = 33733
BSTAR          = .3000041E-3
MEAN_MOTION_DOT = .12817E-3
MEAN_MOTION_DDOT = 0

CCSDS_OMM_VERS = 2.0
CREATION_DATE  = 
ORIGINATOR     = 

OBJECT_NAME    = SL-3 R/B
OBJECT_ID      = 1983-075B
CENTER_NAME    = EARTH
REF_FRAME      = TEME
TIME_SYSTEM    = UTC
MEAN_ELEMENT_THEORY = SGP/SGP4

EPOCH          = 2025-10-27T23:22:21.604224
MEAN_MOTION    = 15.34798749
ECCENTRICITY   = .00230009
INCLINATION    = 97.6108
RA_OF_ASC_NODE = 295.9669
ARG_OF_PERICENTER = 349.2574
MEAN_ANOMALY   = 10.8174

EPHEMERIS_TYPE = 0
CLASSIFICATION_TYPE = U
NORAD_CAT_ID   = 14208
ELEMENT_SET_NO = 999
REV_AT_EPOCH   = 30977
BSTAR          = .40508942E-3
MEAN_MOTION_DOT = .13707E-3
MEAN_MOTION_DDOT = 0

CCSDS_OMM_VERS = 2.0
CREATION_DATE  = 
ORIGINATOR     = 

OBJECT_NAME    = COSMOS 1536
OBJECT_ID      = 1984-013A
CENTER_NAME    = EARTH
REF_FRAME      = TEME
TIME_SYSTEM    = UTC
MEAN_ELEMENT_THEORY = SGP/SGP4

EPOCH          = 2025-10-27T22:04:57.027936
MEAN_MOTION    = 15.21659364
ECCENTRICITY   = .00167157
INCLINATION    = 82.5458
RA_OF_ASC_NODE = 239.5699
ARG_OF_PERICENTER = 36.0172
MEAN_ANOMALY   = 324.2187

EPHEMERIS_TYPE = 0
CLASSIFICATION_TYPE = U
NORAD_CAT_ID   = 14699
ELEMENT_SET_NO = 999
REV_AT_EPOCH   = 25241
BSTAR          = .48439763E-3
MEAN_MOTION_DOT = .11024E-3
MEAN_MOTION_DDOT = 0

CCSDS_OMM_VERS = 2.0
CREATION_DATE  = 
ORIGINATOR     = 

OBJECT_NAME    = SL-14 R/B
OBJECT_ID      = 1984-027B
CENTER_NAME    = EARTH
REF_FRAME      = TEME
TIME_SYSTEM    = UTC
MEAN_ELEMENT_THEORY = SGP/SGP4

EPOCH          = 2025-10-27T21:31:01.025760
MEAN_MOTION    = 14.85805660
ECCENTRICITY   = .00192746
INCLINATION    = 82.5448
RA_OF_ASC_NODE = 9.5427
ARG_OF_PERICENTER = 56.2373
MEAN_ANOMALY   = 304.0676

EPHEMERIS_TYPE = 0
CLASSIFICATION_TYPE = U
NORAD_CAT_ID   = 14820
ELEMENT_SET_NO = 999
REV_AT_EPOCH   = 22791
BSTAR          = .71273429E-4
MEAN_MOTION_DOT = .646E-5
MEAN_MOTION_DDOT = 0

CCSDS_OMM_VERS = 2.0
CREATION_DATE  = 
ORIGINATOR     = 

OBJECT_NAME    = SL-8 R/B
OBJECT_ID      = 1985-006B
CENTER_NAME    = EARTH
REF_FRAME      = TEME
TIME_SYSTEM    = UTC
MEAN_ELEMENT_THEORY = SGP/SGP4

EPOCH          = 2025-10-27T23:23:16.024992
MEAN_MOTION    = 14.37679991
ECCENTRICITY   = .0017409
INCLINATION    = 74.0438
RA_OF_ASC_NODE = 145.3334
ARG_OF_PERICENTER = 93.1927
MEAN_ANOMALY   = 15.1535

EPHEMERIS_TYPE = 0
CLASSIFICATION_TYPE = U
NORAD_CAT_ID   = 15483
ELEMENT_SET_NO = 999
REV_AT_EPOCH   = 13495
BSTAR          = .10233884E-3
MEAN_MOTION_DOT = .282E-5
MEAN_MOTION_DDOT = 0

CCSDS_OMM_VERS = 2.0
CREATION_DATE  = 
ORIGINATOR     = 

OBJECT_NAME    = SL-12 R/B(2)
OBJECT_ID      = 1985-042D
CENTER_NAME    = EARTH
REF_FRAME      = TEME
TIME_SYSTEM    = UTC
MEAN_ELEMENT_THEORY = SGP/SGP4

EPOCH          = 2025-10-27T16:33:48.633408
MEAN_MOTION    = 14.21930518
ECCENTRICITY   = .00364902
INCLINATION    = 71.1102
RA_OF_ASC_NODE = 8.7056
ARG_OF_PERICENTER = 329.4002
MEAN_ANOMALY   = 204.4396

EPHEMERIS_TYPE = 0
CLASSIFICATION_TYPE = U
NORAD_CAT_ID   = 15772
ELEMENT_SET_NO = 999
REV_AT_EPOCH   = 9548
BSTAR          = .11822358E-3
MEAN_MOTION_DOT = .215E-5
MEAN_MOTION_DDOT = 0

CCSDS_OMM_VERS = 2.0
CREATION_DATE  = 
ORIGINATOR     = 

OBJECT_NAME    = SL-14 R/B
OBJECT_ID      = 1985-069B
CENTER_NAME    = EARTH
REF_FRAME      = TEME
TIME_SYSTEM    = UTC
MEAN_ELEMENT_THEORY = SGP/SGP4

EPOCH          = 2025-10-27T14:02:01.491936
MEAN_MOTION    = 14.86246107
ECCENTRICITY   = .00173409
INCLINATION    = 82.5260
RA_OF_ASC_NODE = 150.0953
ARG_OF_PERICENTER = 273.9950
MEAN_ANOMALY   = 85.9284

EPHEMERIS_TYPE = 0
CLASSIFICATION_TYPE = U
NORAD_CAT_ID   = 15945
ELEMENT_SET_NO = 999
REV_AT_EPOCH   = 15306
BSTAR          = .67858638E-4
MEAN_MOTION_DOT = .622E-5
MEAN_MOTION_DDOT = 0

CCSDS_OMM_VERS = 2.0
CREATION_DATE  = 
ORIGINATOR     = 

OBJECT_NAME    = SL-16 R/B
OBJECT_ID      = 1985-097B
CENTER_NAME    = EARTH
REF_FRAME      = TEME
TIME_SYSTEM    = UTC
MEAN_ELEMENT_THEORY = SGP/SGP4

EPOCH          = 2025-10-27T14:07:13.154880
MEAN_MOTION    = 14.16574156
ECCENTRICITY   = .00052913
INCLINATION    = 71.0034
RA_OF_ASC_NODE = 60.7609
ARG_OF_PERICENTER = 103.0630
MEAN_ANOMALY   = 268.0807

EPHEMERIS_TYPE = 0
CLASSIFICATION_TYPE = U
NORAD_CAT_ID   = 16182
ELEMENT_SET_NO = 999
REV_AT_EPOCH   = 6838
BSTAR          = .17976223E-3
MEAN_MOTION_DOT = .311E-5
MEAN_MOTION_DDOT = 0

CCSDS_OMM_VERS = 2.0
CREATION_DATE  = 
ORIGINATOR     = 

OBJECT_NAME    = SL-14 R/B
OBJECT_ID      = 1986-006B
CENTER_NAME    = EARTH
REF_FRAME      = TEME
TIME_SYSTEM    = UTC
MEAN_ELEMENT_THEORY = SGP/SGP4

EPOCH          = 2025-10-27T15:52:07.610880
MEAN_MOTION    = 14.86579157
ECCENTRICITY   = .00766758
INCLINATION    = 82.5301
RA_OF_ASC_NODE = 24.8983
ARG_OF_PERICENTER = 354.8247
MEAN_ANOMALY   = 5.2167

EPHEMERIS_TYPE = 0
CLASSIFICATION_TYPE = U
NORAD_CAT_ID   = 16496
ELEMENT_SET_NO = 999
REV_AT_EPOCH   = 12944
BSTAR          = .85778795E-4
MEAN_MOTION_DOT = .828E-5
MEAN_MOTION_DDOT = 0

